Satellite:  NOAA-16
Catalog number:  26536
Epoch time:  14191.44837773 
Element set:  751 
Inclination:  98.9892 
RA of node:  251.9122 
Eccentricity:  .0011627 
Arg of perigee:  117.7723 
Mean anomaly:  242.4629 
Mean motion:  14.13029297 
Decay rate:  1.20E-07
Epoch rev:  71140 

Satellite:  NOAA-17
Catalog number:  27453
Epoch time:  14191.43854732 
Element set:  648 
Inclination:  98.3145 
RA of node:  189.9276 
Eccentricity:  .0012995 
Arg of perigee:  105.9622 
Mean anomaly:  254.2991 
Mean motion:  14.24756609 
Decay rate:  5.50E-07
Epoch rev:  62599 

Satellite:  FALCON
Catalog number:  30776
Epoch time:  14190.76959725 
Element set:  907 
Inclination:  35.4304 
RA of node:  333.913 
Eccentricity:  .0001171 
Arg of perigee:  156.6074 
Mean anomaly:  340.0281 
Mean motion:  15.16560628 
Decay rate:  9.50E-05
Epoch rev:  40416 

Satellite:  MAST
Catalog number:  31126
Epoch time:  14190.96226851 
Element set:  89 
Inclination:  97.9155 
RA of node:  170.6703 
Eccentricity:  .009062 
Arg of perigee:  283.367 
Mean anomaly:  142.1593 
Mean motion:  14.55315632 
Decay rate:  5.45E-06
Epoch rev:  38370 

Satellite:  CAPE1
Catalog number:  31130
Epoch time:  14191.46357044 
Element set:  96 
Inclination:  97.9364 
RA of node:  167.8273 
Eccentricity:  .009747 
Arg of perigee:  300.1388 
Mean anomaly:  59.0177 
Mean motion:  14.54495161 
Decay rate:  7.43E-06
Epoch rev:  38319 

Satellite:  AAUSAT2
Catalog number:  32788
Epoch time:  14191.76313117 
Element set:  966 
Inclination:  97.7017 
RA of node:  245.6343 
Eccentricity:  .0014996 
Arg of perigee:  101.665 
Mean anomaly:  258.6251 
Mean motion:  14.88746903 
Decay rate:  4.58E-05
Epoch rev:  33575 

Satellite:  RS-38
Catalog number:  35869
Epoch time:  14191.71083983 
Element set:  622 
Inclination:  98.5412 
RA of node:  238.1983 
Eccentricity:  .000501 
Arg of perigee:  40.9942 
Mean anomaly:  72.227 
Mean motion:  14.22217078 
Decay rate:  3.60E-07
Epoch rev:  24971 

Satellite:  RAX-2
Catalog number:  37853
Epoch time:  14191.72933153 
Element set:  855 
Inclination:  101.7125 
RA of node:  232.6025 
Eccentricity:  .021543 
Arg of perigee:  348.7039 
Mean anomaly:  121.4789 
Mean motion:  14.89727041 
Decay rate:  6.78E-05
Epoch rev:  14616 

Satellite:  RS-39
Catalog number:  38051
Epoch time:  14191.79142238 
Element set:  710 
Inclination:  51.6257 
RA of node:  103.7146 
Eccentricity:  .0002552 
Arg of perigee:  251.3075 
Mean anomaly:  146.9214 
Mean motion:  15.63541112 
Decay rate:  1.02E-03
Epoch rev:  13780 

Satellite:  E-STAR
Catalog number:  38079
Epoch time:  14189.44656301 
Element set:  903 
Inclination:  69.4509 
RA of node:  295.4553 
Eccentricity:  .0360641 
Arg of perigee:  323.9785 
Mean anomaly:  149.9819 
Mean motion:  15.11748193 
Decay rate:  8.73E-04
Epoch rev:  12667 

Satellite:  RS-40
Catalog number:  38735
Epoch time:  14191.63524425 
Element set:  618 
Inclination:  82.4766 
RA of node:  272.9218 
Eccentricity:  .0016863 
Arg of perigee:  199.7029 
Mean anomaly:  160.3403 
Mean motion:  12.42560645 
Decay rate:  2.40E-07
Epoch rev:  8849 

Satellite:  DELFIN3XT
Catalog number:  39428
Epoch time:  14191.76909283 
Element set:  201 
Inclination:  97.7599 
RA of node:  256.0873 
Eccentricity:  .0128569 
Arg of perigee:  176.9079 
Mean anomaly:  183.2997 
Mean motion:  14.63373162 
Decay rate:  2.93E-05
Epoch rev:  3378 

