NOAA-16
1 26536U 00055A   14191.44837773  .00000012  00000-0  30594-4 0  7515
2 26536 098.9892 251.9122 0011627 117.7723 242.4629 14.13029297711406
NOAA-17
1 27453U 02032A   14191.43854732  .00000055  00000-0  41138-4 0  6482
2 27453 098.3145 189.9276 0012995 105.9622 254.2991 14.24756609625993
FALCON
1 30776U 07006E   14190.76959725  .00009497  00000-0  47756-3 0  9071
2 30776 035.4304 333.9130 0001171 156.6074 340.0281 15.16560628404168
MAST
1 31126U 07012K   14190.96226851  .00000545  00000-0  12929-3 0   897
2 31126 097.9155 170.6703 0090620 283.3670 142.1593 14.55315632383702
CAPE1
1 31130U 07012P   14191.46357044  .00000743  00000-0  17432-3 0   969
2 31130 097.9364 167.8273 0097470 300.1388 059.0177 14.54495161383195
AAUSAT2
1 32788U 08021F   14191.76313117  .00004578  00000-0  49436-3 0  9661
2 32788 097.7017 245.6343 0014996 101.6650 258.6251 14.88746903335758
RS-38
1 35869U 09049E   14191.71083983  .00000036  00000-0  35417-4 0  6224
2 35869 098.5412 238.1983 0005010 040.9942 072.2270 14.22217078249717
RAX-2
1 37853U 11061D   14191.72933153  .00006779  00000-0  46455-3 0  8551
2 37853 101.7125 232.6025 0215430 348.7039 121.4789 14.89727041146167
RS-39
1 38051U 11062C   14191.79142238  .00102237  00000-0  10732-2 0  7100
2 38051 051.6257 103.7146 0002552 251.3075 146.9214 15.63541112137809
E-STAR
1 38079U 12006C   14189.44656301  .00087302  50595-5  95857-3 0  9039
2 38079 069.4509 295.4553 0360641 323.9785 149.9819 15.11748193126675
RS-40
1 38735U 12041C   14191.63524425  .00000024  00000-0  10000-3 0  6189
2 38735 082.4766 272.9218 0016863 199.7029 160.3403 12.42560645 88494
DELFIN3XT
1 39428U 13066N   14191.76909283  .00002930  00000-0  51137-3 0  2012
2 39428 097.7599 256.0873 0128569 176.9079 183.2997 14.63373162 33781
